{"type": "FeatureCollection", "features": [ {"type": "Feature", "properties": {"norad_id": 38055, "name": "COSMOS 2251 DEB", "group": "cosmos-2251-debris", "lat": -8.614444801292477, "lon": -0.676549127986347, "alt_km": 659.4200285233683, "timestamp": "2025-12-27T23:26:37.762025+00:00", "meta": {"OBJECT_NAME": "COSMOS 2251 DEB", "OBJECT_ID": "1993-036BRM", "EPOCH": "2025-12-26T04:52:48.177696", "MEAN_MOTION": 14.77111908, "ECCENTRICITY": 0.00661826, "INCLINATION": 74.0079, "RA_OF_ASC_NODE": 180.3155, "ARG_OF_PERICENTER": 305.0228, "MEAN_ANOMALY": 177.6767, "EPHEMERIS_TYPE": 0, "CLASSIFICATION_TYPE": "U", "NORAD_CAT_ID": 38055, "ELEMENT_SET_NO": 999, "REV_AT_EPOCH": 60881, "BSTAR": 0.00074914233, "MEAN_MOTION_DOT": 5.457e-05, "MEAN_MOTION_DDOT": 0}, "tle": {"line1": "1 38055U 93036BRM 25360.20333539  .00005457  00000+0  74914-3 0  9994", "line2": "2 38055  74.0079 180.3155 0066182 305.0228 177.6767 14.77111908608819"}}, "geometry": {"type": "Point", "coordinates": [-0.676549127986347, -8.614444801292477]}}, {"type": "Feature", "properties": {"norad_id": 38060, "name": "COSMOS 2251 DEB", "group": "cosmos-2251-debris", "lat": 51.05139219706665, "lon": -73.207424664512, "alt_km": 646.4755930685851, "timestamp": "2025-12-27T23:26:37.762035+00:00", "meta": {"OBJECT_NAME": "COSMOS 2251 DEB", "OBJECT_ID": "1993-036BRS", "EPOCH": "2025-12-25T12:09:27.527040", "MEAN_MOTION": 14.63928646, "ECCENTRICITY": 0.0058702, "INCLINATION": 74.0433, "RA_OF_ASC_NODE": 270.8015, "ARG_OF_PERICENTER": 13.4821, "MEAN_ANOMALY": 346.7897, "EPHEMERIS_TYPE": 0, "CLASSIFICATION_TYPE": "U", "NORAD_CAT_ID": 38060, "ELEMENT_SET_NO": 999, "REV_AT_EPOCH": 72151, "BSTAR": 0.00055069, "MEAN_MOTION_DOT": 2.924e-05, "MEAN_MOTION_DDOT": 0}, "tle": {"line1": "1 38060U 93036BRS 25359.50656860  .00002924  00000+0  55069-3 0  9992", "line2": "2 38060  74.0433 270.8015 0058702  13.4821 346.7897 14.63928646721513"}}, "geometry": {"type": "Point", "coordinates": [-73.207424664512, 51.05139219706665]}}, {"type": "Feature", "properties": {"norad_id": 38062, "name": "COSMOS 2251 DEB", "group": "cosmos-2251-debris", "lat": -59.53549285661071, "lon": -129.49138197049234, "alt_km": 587.653072860935, "timestamp": "2025-12-27T23:26:37.762045+00:00", "meta": {"OBJECT_NAME": "COSMOS 2251 DEB", "OBJECT_ID": "1993-036BRU", "EPOCH": "2025-12-20T12:40:12.328608", "MEAN_MOTION": 14.95206267, "ECCENTRICITY": 0.00129431, "INCLINATION": 74.0088, "RA_OF_ASC_NODE": 274.7346, "ARG_OF_PERICENTER": 42.7602, "MEAN_ANOMALY": 131.9089, "EPHEMERIS_TYPE": 0, "CLASSIFICATION_TYPE": "U", "NORAD_CAT_ID": 38062, "ELEMENT_SET_NO": 999, "REV_AT_EPOCH": 63146, "BSTAR": 0.0014745207, "MEAN_MOTION_DOT": 0.00016237, "MEAN_MOTION_DDOT": 0}, "tle": {"line1": "1 38062U 93036BRU 25354.52792047  .00016237  00000+0  14745-2 0  9996", "line2": "2 38062  74.0088 274.7346 0012943  42.7602 131.9089 14.95206267631464"}}, "geometry": {"type": "Point", "coordinates": [-129.49138197049234, -59.53549285661071]}}, {"type": "Feature", "properties": {"norad_id": 38064, "name": "COSMOS 2251 DEB", "group": "cosmos-2251-debris", "lat": -62.83277149169823, "lon": -50.85770166989372, "alt_km": 684.4663090610293, "timestamp": "2025-12-27T23:26:37.762055+00:00", "meta": {"OBJECT_NAME": "COSMOS 2251 DEB", "OBJECT_ID": "1993-036BRW", "EPOCH": "2025-12-27T05:49:29.069184", "MEAN_MOTION": 14.56424107, "ECCENTRICITY": 0.0046908, "INCLINATION": 74.0229, "RA_OF_ASC_NODE": 96.6004, "ARG_OF_PERICENTER": 213.725, "MEAN_ANOMALY": 146.0928, "EPHEMERIS_TYPE": 0, "CLASSIFICATION_TYPE": "U", "NORAD_CAT_ID": 38064, "ELEMENT_SET_NO": 999, "REV_AT_EPOCH": 72076, "BSTAR": 0.0011074, "MEAN_MOTION_DOT": 4.965e-05, "MEAN_MOTION_DDOT": 0}, "tle": {"line1": "1 38064U 93036BRW 25361.24269756  .00004965  00000+0  11074-2 0  9998", "line2": "2 38064  74.0229  96.6004 0046908 213.7250 146.0928 14.56424107720765"}}, "geometry": {"type": "Point", "coordinates": [-50.85770166989372, -62.83277149169823]}}, {"type": "Feature", "properties": {"norad_id": 38067, "name": "COSMOS 2251 DEB", "group": "cosmos-2251-debris", "lat": 46.46815749817397, "lon": 47.78004207173715, "alt_km": 694.9506356983466, "timestamp": "2025-12-27T23:26:37.762065+00:00", "meta": {"OBJECT_NAME": "COSMOS 2251 DEB", "OBJECT_ID": "1993-036BRZ", "EPOCH": "2025-12-26T11:29:24.952992", "MEAN_MOTION": 14.61174653, "ECCENTRICITY": 0.0070045, "INCLINATION": 74.0162, "RA_OF_ASC_NODE": 248.2067, "ARG_OF_PERICENTER": 32.1655, "MEAN_ANOMALY": 141.0847, "EPHEMERIS_TYPE": 0, "CLASSIFICATION_TYPE": "U", "NORAD_CAT_ID": 38067, "ELEMENT_SET_NO": 999, "REV_AT_EPOCH": 62756, "BSTAR": 0.00033487, "MEAN_MOTION_DOT": 1.676e-05, "MEAN_MOTION_DDOT": 0}, "tle": {"line1": "1 38067U 93036BRZ 25360.47876103  .00001676  00000+0  33487-3 0  9994", "line2": "2 38067  74.0162 248.2067 0070045  32.1655 141.0847 14.61174653627562"}}, "geometry": {"type": "Point", "coordinates": [47.78004207173715, 46.46815749817397]}}, {"type": "Feature", "properties": {"norad_id": 38068, "name": "COSMOS 2251 DEB", "group": "cosmos-2251-debris", "lat": -42.0378754666613, "lon": -94.73727288025343, "alt_km": 765.9712814183777, "timestamp": "2025-12-27T23:26:37.762075+00:00", "meta": {"OBJECT_NAME": "COSMOS 2251 DEB", "OBJECT_ID": "1993-036BSA", "EPOCH": "2025-12-26T12:32:13.592256", "MEAN_MOTION": 14.36020492, "ECCENTRICITY": 0.0025088, "INCLINATION": 74.0217, "RA_OF_ASC_NODE": 282.905, "ARG_OF_PERICENTER": 7.3402, "MEAN_ANOMALY": 352.8113, "EPHEMERIS_TYPE": 0, "CLASSIFICATION_TYPE": "U", "NORAD_CAT_ID": 38068, "ELEMENT_SET_NO": 999, "REV_AT_EPOCH": 66844, "BSTAR": 0.00030529, "MEAN_MOTION_DOT": 8.64e-06, "MEAN_MOTION_DDOT": 0}, "tle": {"line1": "1 38068U 93036BSA 25360.52237954  .00000864  00000+0  30529-3 0  9998", "line2": "2 38068  74.0217 282.9050 0025088   7.3402 352.8113 14.36020492668445"}}, "geometry": {"type": "Point", "coordinates": [-94.73727288025343, -42.0378754666613]}}, {"type": "Feature", "properties": {"norad_id": 38197, "name": "COSMOS 2251 DEB", "group": "cosmos-2251-debris", "lat": -63.72870008930927, "lon": -177.18010570418394, "alt_km": 593.9375006525624, "timestamp": "2025-12-27T23:26:37.762086+00:00", "meta": {"OBJECT_NAME": "COSMOS 2251 DEB", "OBJECT_ID": "1993-036BSM", "EPOCH": "2025-12-27T04:24:41.591808", "MEAN_MOTION": 14.74672965, "ECCENTRICITY": 0.01243, "INCLINATION": 73.938, "RA_OF_ASC_NODE": 328.668, "ARG_OF_PERICENTER": 202.6014, "MEAN_ANOMALY": 156.9659, "EPHEMERIS_TYPE": 0, "CLASSIFICATION_TYPE": "U", "NORAD_CAT_ID": 38197, "ELEMENT_SET_NO": 999, "REV_AT_EPOCH": 85968, "BSTAR": 0.0033283185, "MEAN_MOTION_DOT": 0.00025235, "MEAN_MOTION_DDOT": 0}, "tle": {"line1": "1 38197U 93036BSM 25361.18381472  .00025235  00000+0  33283-2 0  9997", "line2": "2 38197  73.9380 328.6680 0124300 202.6014 156.9659 14.74672965859686"}}, "geometry": {"type": "Point", "coordinates": [-177.18010570418394, -63.72870008930927]}}, {"type": "Feature", "properties": {"norad_id": 38199, "name": "COSMOS 2251 DEB", "group": "cosmos-2251-debris", "lat": 27.056021330486306, "lon": -151.29780241858273, "alt_km": 1285.221722234518, "timestamp": "2025-12-27T23:26:37.762096+00:00", "meta": {"OBJECT_NAME": "COSMOS 2251 DEB", "OBJECT_ID": "1993-036BSP", "EPOCH": "2025-12-26T11:30:15.579072", "MEAN_MOTION": 13.64814422, "ECCENTRICITY": 0.0370315, "INCLINATION": 73.9556, "RA_OF_ASC_NODE": 39.6133, "ARG_OF_PERICENTER": 323.3763, "MEAN_ANOMALY": 34.254, "EPHEMERIS_TYPE": 0, "CLASSIFICATION_TYPE": "U", "NORAD_CAT_ID": 38199, "ELEMENT_SET_NO": 999, "REV_AT_EPOCH": 61209, "BSTAR": 0.00067322, "MEAN_MOTION_DOT": 8.42e-06, "MEAN_MOTION_DDOT": 0}, "tle": {"line1": "1 38199U 93036BSP 25360.47934698  .00000842  00000+0  67322-3 0  9993", "line2": "2 38199  73.9556  39.6133 0370315 323.3763  34.2540 13.64814422612099"}}, "geometry": {"type": "Point", "coordinates": [-151.29780241858273, 27.056021330486306]}}, {"type": "Feature", "properties": {"norad_id": 38208, "name": "COSMOS 2251 DEB", "group": "cosmos-2251-debris", "lat": 12.598112782254953, "lon": 52.32040447438608, "alt_km": 616.0386320148727, "timestamp": "2025-12-27T23:26:37.762106+00:00", "meta": {"OBJECT_NAME": "COSMOS 2251 DEB", "OBJECT_ID": "1993-036BSY", "EPOCH": "2025-12-26T10:15:20.422944", "MEAN_MOTION": 14.8437794, "ECCENTRICITY": 8.48e-05, "INCLINATION": 74.0044, "RA_OF_ASC_NODE": 51.7225, "ARG_OF_PERICENTER": 86.2803, "MEAN_ANOMALY": 290.0795, "EPHEMERIS_TYPE": 0, "CLASSIFICATION_TYPE": "U", "NORAD_CAT_ID": 38208, "ELEMENT_SET_NO": 999, "REV_AT_EPOCH": 71362, "BSTAR": 0.0021793, "MEAN_MOTION_DOT": 0.00018329, "MEAN_MOTION_DDOT": 0}, "tle": {"line1": "1 38208U 93036BSY 25360.42731971  .00018329  00000+0  21793-2 0  9998", "line2": "2 38208  74.0044  51.7225 0000848  86.2803 290.0795 14.84377940713629"}}, "geometry": {"type": "Point", "coordinates": [52.32040447438608, 12.598112782254953]}}, {"type": "Feature", "properties": {"norad_id": 38212, "name": "COSMOS 2251 DEB", "group": "cosmos-2251-debris", "lat": -28.69461341248431, "lon": 37.72285698373384, "alt_km": 690.6773817548292, "timestamp": "2025-12-27T23:26:37.762116+00:00", "meta": {"OBJECT_NAME": "COSMOS 2251 DEB", "OBJECT_ID": "1993-036BTC", "EPOCH": "2025-12-19T04:21:29.490912", "MEAN_MOTION": 14.77722254, "ECCENTRICITY": 0.0092064, "INCLINATION": 74.0528, "RA_OF_ASC_NODE": 63.9673, "ARG_OF_PERICENTER": 129.0689, "MEAN_ANOMALY": 231.8724, "EPHEMERIS_TYPE": 0, "CLASSIFICATION_TYPE": "U", "NORAD_CAT_ID": 38212, "ELEMENT_SET_NO": 999, "REV_AT_EPOCH": 81405, "BSTAR": 0.00027193732, "MEAN_MOTION_DOT": 2.056e-05, "MEAN_MOTION_DDOT": 0}, "tle": {"line1": "1 38212U 93036BTC 25353.18159133  .00002056  00000+0  27194-3 0  9994", "line2": "2 38212  74.0528  63.9673 0092064 129.0689 231.8724 14.77722254814050"}}, "geometry": {"type": "Point", "coordinates": [37.72285698373384, -28.69461341248431]}}]}